start=new Date('2022-03-25T00:00:00.000Z').valueOf();
sats=[{"RCS_SIZE":"LARGE","MEAN_MOTION_DOT":"0.00004361","OBJECT_NAME":"STARLINK-1917","CENTER_NAME":"EARTH","SEMIMAJOR_AXIS":"6925.324","CLASSIFICATION_TYPE":"U","PERIAPSIS":"546.020","OBJECT_TYPE":"PAYLOAD","ECCENTRICITY":"0.00016880","PERIOD":"95.592","RA_OF_ASC_NODE":"346.9990","ARG_OF_PERICENTER":"56.5086","MEAN_MOTION":"15.06408029","INCLINATION":"53.0565","LAUNCH_DATE":"2020-10-24","EPHEMERIS_TYPE":"0","COUNTRY_CODE":"US","MEAN_ANOMALY":"303.6064","NORAD_CAT_ID":"46767","APOAPSIS":"548.358","SITE":"AFETR","MEAN_ELEMENT_THEORY":"SGP4","OBJECT_ID":"2020-074AE","BSTAR":"0.00031144000000","REF_FRAME":"TEME","TIME_SYSTEM":"UTC","DECAY_DATE":null,"REV_AT_EPOCH":"7855","MEAN_MOTION_DDOT":"0.0000000000000","FILE":"3373054","GP_ID":"199619526","ELEMENT_SET_NO":"999","EPOCH":"2022-03-24T21:41:06.271584","TLE_LINE1":"1 46767U 20074AE  22083.90354481  .00004361  00000-0  31144-3 0  9992","TLE_LINE2":"2 46767  53.0565 346.9990 0001688  56.5086 303.6064 15.06408029 78551"},{"OBJECT_TYPE":"PAYLOAD","ECCENTRICITY":"0.00016310","PERIAPSIS":"546.039","RA_OF_ASC_NODE":"346.7008","PERIOD":"95.591","CLASSIFICATION_TYPE":"U","LAUNCH_DATE":"2020-10-24","COUNTRY_CODE":"US","EPHEMERIS_TYPE":"0","ARG_OF_PERICENTER":"63.1391","MEAN_MOTION":"15.06414581","INCLINATION":"53.0538","OBJECT_NAME":"STARLINK-1918","RCS_SIZE":"LARGE","MEAN_MOTION_DOT":"0.00006294","CENTER_NAME":"EARTH","SEMIMAJOR_AXIS":"6925.304","FILE":"3372865","GP_ID":"199594311","REV_AT_EPOCH":"7858","MEAN_MOTION_DDOT":"0.0000000000000","EPOCH":"2022-03-24T23:21:56.979360","TLE_LINE1":"1 46768U 20074AF  22083.97357615  .00006294  00000-0  44091-3 0  9994","TLE_LINE2":"2 46768  53.0538 346.7008 0001631  63.1391 296.9765 15.06414581 78586","ELEMENT_SET_NO":"999","APOAPSIS":"548.298","SITE":"AFETR","MEAN_ANOMALY":"296.9765","NORAD_CAT_ID":"46768","TIME_SYSTEM":"UTC","DECAY_DATE":null,"OBJECT_ID":"2020-074AF","MEAN_ELEMENT_THEORY":"SGP4","BSTAR":"0.00044091000000","REF_FRAME":"TEME"},{"CENTER_NAME":"EARTH","SEMIMAJOR_AXIS":"6688.606","RCS_SIZE":"LARGE","MEAN_MOTION_DOT":"0.00538869","OBJECT_NAME":"STARLINK-1919","ARG_OF_PERICENTER":"173.9190","INCLINATION":"53.0517","MEAN_MOTION":"15.87082085","LAUNCH_DATE":"2020-10-24","EPHEMERIS_TYPE":"0","COUNTRY_CODE":"US","CLASSIFICATION_TYPE":"U","PERIAPSIS":"309.349","OBJECT_TYPE":"PAYLOAD","ECCENTRICITY":"0.00016770","PERIOD":"90.733","RA_OF_ASC_NODE":"300.2708","BSTAR":"0.00191290000000","OBJECT_ID":"2020-074AG","MEAN_ELEMENT_THEORY":"SGP4","REF_FRAME":"TEME","DECAY_DATE":null,"TIME_SYSTEM":"UTC","MEAN_ANOMALY":"186.1855","NORAD_CAT_ID":"46769","SITE":"AFETR","APOAPSIS":"311.592","ELEMENT_SET_NO":"999","EPOCH":"2022-03-24T23:16:43.917600","TLE_LINE2":"2 46769  53.0517 300.2708 0001677 173.9190 186.1855 15.87082085 78942","TLE_LINE1":"1 46769U 20074AG  22083.96995275  .00538869  00000-0  19129-2 0  9995","REV_AT_EPOCH":"7894","MEAN_MOTION_DDOT":"0.0000000000000","FILE":"3373025","GP_ID":"199598242"},{"CENTER_NAME":"EARTH","SEMIMAJOR_AXIS":"6925.361","OBJECT_NAME":"STARLINK-1932","MEAN_MOTION_DOT":"0.00000845","RCS_SIZE":"LARGE","LAUNCH_DATE":"2020-10-24","EPHEMERIS_TYPE":"0","COUNTRY_CODE":"US","ARG_OF_PERICENTER":"60.9946","INCLINATION":"53.0564","MEAN_MOTION":"15.06395792","ECCENTRICITY":"0.00018280","OBJECT_TYPE":"PAYLOAD","PERIAPSIS":"545.960","PERIOD":"95.592","RA_OF_ASC_NODE":"346.8924","CLASSIFICATION_TYPE":"U","DECAY_DATE":null,"TIME_SYSTEM":"UTC","BSTAR":"0.00007561000000","MEAN_ELEMENT_THEORY":"SGP4","OBJECT_ID":"2020-074AH","REF_FRAME":"TEME","SITE":"AFETR","APOAPSIS":"548.492","MEAN_ANOMALY":"299.1226","NORAD_CAT_ID":"46770","EPOCH":"2022-03-24T22:16:54.192000","TLE_LINE2":"2 46770  53.0564 346.8924 0001828  60.9946 299.1226 15.06395792 78551","TLE_LINE1":"1 46770U 20074AH  22083.92840500  .00000845  00000-0  75610-4 0  9990","ELEMENT_SET_NO":"999","FILE":"3373054","GP_ID":"199621278","REV_AT_EPOCH":"7855","MEAN_MOTION_DDOT":"0.0000000000000"},{"TIME_SYSTEM":"UTC","DECAY_DATE":null,"REF_FRAME":"TEME","MEAN_ELEMENT_THEORY":"SGP4","OBJECT_ID":"2020-074AK","BSTAR":"0.00007217200000","SITE":"AFETR","APOAPSIS":"548.406","NORAD_CAT_ID":"46772","MEAN_ANOMALY":"303.0923","TLE_LINE1":"1 46772U 20074AK  22083.91460403  .00000794  00000-0  72172-4 0  9994","TLE_LINE2":"2 46772  53.0552 346.9593 0001731  57.0232 303.0923 15.06402046 78551","EPOCH":"2022-03-24T21:57:01.788192","ELEMENT_SET_NO":"999","GP_ID":"199620026","FILE":"3373054","MEAN_MOTION_DDOT":"0.0000000000000","REV_AT_EPOCH":"7855","SEMIMAJOR_AXIS":"6925.342","CENTER_NAME":"EARTH","OBJECT_NAME":"STARLINK-1936","MEAN_MOTION_DOT":"0.00000794","RCS_SIZE":"LARGE","COUNTRY_CODE":"US","EPHEMERIS_TYPE":"0","LAUNCH_DATE":"2020-10-24","MEAN_MOTION":"15.06402046","INCLINATION":"53.0552","ARG_OF_PERICENTER":"57.0232","PERIOD":"95.592","RA_OF_ASC_NODE":"346.9593","OBJECT_TYPE":"PAYLOAD","PERIAPSIS":"546.009","ECCENTRICITY":"0.00017310","CLASSIFICATION_TYPE":"U"},{"MEAN_MOTION_DOT":"0.00016508","RCS_SIZE":"LARGE","OBJECT_NAME":"STARLINK-1939","CENTER_NAME":"EARTH","SEMIMAJOR_AXIS":"6910.901","CLASSIFICATION_TYPE":"U","PERIAPSIS":"531.323","OBJECT_TYPE":"PAYLOAD","ECCENTRICITY":"0.00020890","PERIOD":"95.293","RA_OF_ASC_NODE":"342.6934","ARG_OF_PERICENTER":"123.3918","MEAN_MOTION":"15.11126188","INCLINATION":"53.0541","LAUNCH_DATE":"2020-10-24","COUNTRY_CODE":"US","EPHEMERIS_TYPE":"0","MEAN_ANOMALY":"236.7273","NORAD_CAT_ID":"46774","APOAPSIS":"534.210","SITE":"AFETR","OBJECT_ID":"2020-074AM","MEAN_ELEMENT_THEORY":"SGP4","BSTAR":"0.00098892000000","REF_FRAME":"TEME","TIME_SYSTEM":"UTC","DECAY_DATE":null,"REV_AT_EPOCH":"7862","MEAN_MOTION_DDOT":"0.0000000000000","FILE":"3373054","GP_ID":"199619777","ELEMENT_SET_NO":"999","EPOCH":"2022-03-24T22:35:33.787392","TLE_LINE1":"1 46774U 20074AM  22083.94136328  .00016508  00000-0  98892-3 0  9991","TLE_LINE2":"2 46774  53.0541 342.6934 0002089 123.3918 236.7273 15.11126188 78622"},{"NORAD_CAT_ID":"46776","MEAN_ANOMALY":"273.2573","SITE":"AFETR","APOAPSIS":"440.542","REF_FRAME":"TEME","MEAN_ELEMENT_THEORY":"SGP4","OBJECT_ID":"2020-074AP","BSTAR":"0.00000805030000","TIME_SYSTEM":"UTC","DECAY_DATE":null,"MEAN_MOTION_DDOT":"0.0000000000000","REV_AT_EPOCH":"7841","GP_ID":"199590281","FILE":"3372679","ELEMENT_SET_NO":"999","TLE_LINE1":"1 46776U 20074AP  22083.94789640 -.00000061  00000-0  80503-5 0  9994","TLE_LINE2":"2 46776  53.0574 335.0578 0001227  86.8572 273.2573 15.42170806 78418","EPOCH":"2022-03-24T22:44:58.248960","RCS_SIZE":"LARGE","MEAN_MOTION_DOT":"-0.00000061","OBJECT_NAME":"STARLINK-1946","SEMIMAJOR_AXIS":"6817.841","CENTER_NAME":"EARTH","CLASSIFICATION_TYPE":"U","PERIOD":"93.375","RA_OF_ASC_NODE":"335.0578","OBJECT_TYPE":"PAYLOAD","ECCENTRICITY":"0.00012270","PERIAPSIS":"438.869","MEAN_MOTION":"15.42170806","INCLINATION":"53.0574","ARG_OF_PERICENTER":"86.8572","EPHEMERIS_TYPE":"0","COUNTRY_CODE":"US","LAUNCH_DATE":"2020-10-24"},{"CENTER_NAME":"EARTH","SEMIMAJOR_AXIS":"6925.352","MEAN_MOTION_DOT":"0.00001373","RCS_SIZE":"LARGE","OBJECT_NAME":"STARLINK-1798","ARG_OF_PERICENTER":"58.3362","INCLINATION":"53.0552","MEAN_MOTION":"15.06398799","LAUNCH_DATE":"2020-10-24","COUNTRY_CODE":"US","EPHEMERIS_TYPE":"0","CLASSIFICATION_TYPE":"U","PERIAPSIS":"546.042","OBJECT_TYPE":"PAYLOAD","ECCENTRICITY":"0.00016970","PERIOD":"95.592","RA_OF_ASC_NODE":"321.8198","BSTAR":"0.00011105000000","OBJECT_ID":"2020-074AS","MEAN_ELEMENT_THEORY":"SGP4","REF_FRAME":"TEME","DECAY_DATE":null,"TIME_SYSTEM":"UTC","MEAN_ANOMALY":"301.7792","NORAD_CAT_ID":"46779","APOAPSIS":"548.392","SITE":"AFETR","ELEMENT_SET_NO":"999","EPOCH":"2022-03-24T22:40:09.931296","TLE_LINE2":"2 46779  53.0552 321.8198 0001697  58.3362 301.7792 15.06398799 78907","TLE_LINE1":"1 46779U 20074AS  22083.94455939  .00001373  00000-0  11105-3 0  9994","REV_AT_EPOCH":"7890","MEAN_MOTION_DDOT":"0.0000000000000","FILE":"3373054","GP_ID":"199620779"},{"RCS_SIZE":"LARGE","MEAN_MOTION_DOT":"0.00008376","OBJECT_NAME":"STARLINK-1832","CENTER_NAME":"EARTH","SEMIMAJOR_AXIS":"6925.302","CLASSIFICATION_TYPE":"U","OBJECT_TYPE":"PAYLOAD","ECCENTRICITY":"0.00018270","PERIAPSIS":"545.902","PERIOD":"95.591","RA_OF_ASC_NODE":"321.8792","ARG_OF_PERICENTER":"62.4068","INCLINATION":"53.0555","MEAN_MOTION":"15.06415197","LAUNCH_DATE":"2020-10-24","COUNTRY_CODE":"US","EPHEMERIS_TYPE":"0","MEAN_ANOMALY":"297.7106","NORAD_CAT_ID":"46780","APOAPSIS":"548.432","SITE":"AFETR","BSTAR":"0.00058032000000","MEAN_ELEMENT_THEORY":"SGP4","OBJECT_ID":"2020-074AT","REF_FRAME":"TEME","DECAY_DATE":null,"TIME_SYSTEM":"UTC","REV_AT_EPOCH":"7890","MEAN_MOTION_DDOT":"0.0000000000000","FILE":"3373054","GP_ID":"199619527","ELEMENT_SET_NO":"999","EPOCH":"2022-03-24T22:24:13.755456","TLE_LINE2":"2 46780  53.0555 321.8792 0001827  62.4068 297.7106 15.06415197 78901","TLE_LINE1":"1 46780U 20074AT  22083.93349254  .00008376  00000-0  58032-3 0  9997"},{"NORAD_CAT_ID":"46781","MEAN_ANOMALY":"295.1023","APOAPSIS":"548.468","SITE":"AFETR","REF_FRAME":"TEME","OBJECT_ID":"2020-074AU","MEAN_ELEMENT_THEORY":"SGP4","BSTAR":"0.00003886400000","TIME_SYSTEM":"UTC","DECAY_DATE":null,"MEAN_MOTION_DDOT":"0.0000000000000","REV_AT_EPOCH":"7850","GP_ID":"199598106","FILE":"3373015","ELEMENT_SET_NO":"999","TLE_LINE1":"1 46781U 20074AU  22083.95100153  .00000297  00000-0  38864-4 0  9999","TLE_LINE2":"2 46781  53.0554 331.7978 0001815  65.0154 295.1023 15.06400811 78502","EPOCH":"2022-03-24T22:49:26.532192","MEAN_MOTION_DOT":"0.00000297","RCS_SIZE":"LARGE","OBJECT_NAME":"STARLINK-1834","SEMIMAJOR_AXIS":"6925.346","CENTER_NAME":"EARTH","CLASSIFICATION_TYPE":"U","RA_OF_ASC_NODE":"331.7978","PERIOD":"95.592","ECCENTRICITY":"0.00018150","OBJECT_TYPE":"PAYLOAD","PERIAPSIS":"545.954","MEAN_MOTION":"15.06400811","INCLINATION":"53.0554","ARG_OF_PERICENTER":"65.0154","COUNTRY_CODE":"US","EPHEMERIS_TYPE":"0","LAUNCH_DATE":"2020-10-24"}];
